{
  "type": "FeatureCollection",
  "features": [
    {
      "type": "Feature",
      "properties": {
        "norad_id": 66872,
        "name": "STARLINK-36082",
        "group": "last-30-days",
        "lat": -38.0353206407654,
        "lon": -10.458746747018003,
        "alt_km": 309.3412831176738,
        "timestamp": "2025-12-14T07:33:18.188993+00:00",
        "meta_object_name": "STARLINK-36082",
        "meta_object_id": "2025-281AA",
        "meta_epoch": "2025-12-13T15:26:40.690464",
        "meta_mean_motion": 15.89781513,
        "meta_eccentricity": 0.00023467,
        "meta_inclination": 42.9999,
        "meta_ra_of_asc_node": 116.6102,
        "meta_arg_of_pericenter": 206.4259,
        "meta_mean_anomaly": 153.6497,
        "meta_ephemeris_type": 0,
        "meta_classification_type": "U",
        "meta_norad_cat_id": 66872,
        "meta_element_set_no": 999,
        "meta_rev_at_epoch": 293,
        "meta_bstar": -0.0042006649,
        "meta_mean_motion_dot": -0.01138109,
        "meta_mean_motion_ddot": 0,
        "tle_line1": "1 66872U 25281AA  25347.64352651 -.01138109  00000+0 -42007-2 0  9999",
        "tle_line2": "2 66872  42.9999 116.6102 0002346 206.4259 153.6497 15.89781513  2930"
      },
      "geometry": {
        "type": "Point",
        "coordinates": [
          -10.458746747018003,
          -38.0353206407654
        ]
      }
    },
    {
      "type": "Feature",
      "properties": {
        "norad_id": 66873,
        "name": "STARLINK-36128",
        "group": "last-30-days",
        "lat": -16.211497942263097,
        "lon": -49.24659779888306,
        "alt_km": 378.0618400867006,
        "timestamp": "2025-12-14T07:33:18.189007+00:00",
        "meta_object_name": "STARLINK-36128",
        "meta_object_id": "2025-281AB",
        "meta_epoch": "2025-12-13T07:53:24.485568",
        "meta_mean_motion": 15.83609587,
        "meta_eccentricity": 0.00309005,
        "meta_inclination": 43.0006,
        "meta_ra_of_asc_node": 118.5515,
        "meta_arg_of_pericenter": 57.476,
        "meta_mean_anomaly": 302.9091,
        "meta_ephemeris_type": 0,
        "meta_classification_type": "U",
        "meta_norad_cat_id": 66873,
        "meta_element_set_no": 999,
        "meta_rev_at_epoch": 283,
        "meta_bstar": -0.039361402,
        "meta_mean_motion_dot": -0.07328802,
        "meta_mean_motion_ddot": 0,
        "tle_line1": "1 66873U 25281AB  25347.32875562 -.07328802  00000+0 -39361-1 0  9991",
        "tle_line2": "2 66873  43.0006 118.5515 0030900  57.4760 302.9091 15.83609587  2831"
      },
      "geometry": {
        "type": "Point",
        "coordinates": [
          -49.24659779888306,
          -16.211497942263097
        ]
      }
    },
    {
      "type": "Feature",
      "properties": {
        "norad_id": 66874,
        "name": "STARLINK-36129",
        "group": "last-30-days",
        "lat": -38.71014023377027,
        "lon": -8.2297304124243,
        "alt_km": 307.5878158306268,
        "timestamp": "2025-12-14T07:33:18.189019+00:00",
        "meta_object_name": "STARLINK-36129",
        "meta_object_id": "2025-281AC",
        "meta_epoch": "2025-12-13T07:54:19.825632",
        "meta_mean_motion": 15.90418355,
        "meta_eccentricity": 0.00037816,
        "meta_inclination": 43.0008,
        "meta_ra_of_asc_node": 118.5585,
        "meta_arg_of_pericenter": 317.1783,
        "meta_mean_anomaly": 42.8797,
        "meta_ephemeris_type": 0,
        "meta_classification_type": "U",
        "meta_norad_cat_id": 66874,
        "meta_element_set_no": 999,
        "meta_rev_at_epoch": 288,
        "meta_bstar": -0.0022089003,
        "meta_mean_motion_dot": -0.00654209,
        "meta_mean_motion_ddot": 0,
        "tle_line1": "1 66874U 25281AC  25347.32939613 -.00654209  00000+0 -22089-2 0  9996",
        "tle_line2": "2 66874  43.0008 118.5585 0003781 317.1783  42.8797 15.90418355  2886"
      },
      "geometry": {
        "type": "Point",
        "coordinates": [
          -8.2297304124243,
          -38.71014023377027
        ]
      }
    },
    {
      "type": "Feature",
      "properties": {
        "norad_id": 66875,
        "name": "STARLINK-36053",
        "group": "last-30-days",
        "lat": -40.85715635702535,
        "lon": 0.5862931681533295,
        "alt_km": 307.44588016444413,
        "timestamp": "2025-12-14T07:33:18.189030+00:00",
        "meta_object_name": "STARLINK-36053",
        "meta_object_id": "2025-281AD",
        "meta_epoch": "2025-12-13T15:24:35.039808",
        "meta_mean_motion": 15.89588447,
        "meta_eccentricity": 0.00017716,
        "meta_inclination": 42.9997,
        "meta_ra_of_asc_node": 116.5979,
        "meta_arg_of_pericenter": 264.1985,
        "meta_mean_anomaly": 95.8687,
        "meta_ephemeris_type": 0,
        "meta_classification_type": "U",
        "meta_norad_cat_id": 66875,
        "meta_element_set_no": 999,
        "meta_rev_at_epoch": 288,
        "meta_bstar": -0.0017581619,
        "meta_mean_motion_dot": -0.00506784,
        "meta_mean_motion_ddot": 0,
        "tle_line1": "1 66875U 25281AD  25347.64207222 -.00506784  00000+0 -17582-2 0  9992",
        "tle_line2": "2 66875  42.9997 116.5979 0001771 264.1985  95.8687 15.89588447  2883"
      },
      "geometry": {
        "type": "Point",
        "coordinates": [
          0.5862931681533295,
          -40.85715635702535
        ]
      }
    },
    {
      "type": "Feature",
      "properties": {
        "norad_id": 66876,
        "name": "STARLINK-35702",
        "group": "last-30-days",
        "lat": -42.96462816731458,
        "lon": 20.532710815656102,
        "alt_km": 290.3260475036341,
        "timestamp": "2025-12-14T07:33:18.189040+00:00",
        "meta_object_name": "STARLINK-35702",
        "meta_object_id": "2025-281AE",
        "meta_epoch": "2025-12-13T01:51:28.717344",
        "meta_mean_motion": 15.92649649,
        "meta_eccentricity": 0.00026407,
        "meta_inclination": 43.0009,
        "meta_ra_of_asc_node": 120.1106,
        "meta_arg_of_pericenter": 295.4716,
        "meta_mean_anomaly": 64.5886,
        "meta_ephemeris_type": 0,
        "meta_classification_type": "U",
        "meta_norad_cat_id": 66876,
        "meta_element_set_no": 999,
        "meta_rev_at_epoch": 284,
        "meta_bstar": 0.002543947,
        "meta_mean_motion_dot": 0.00900389,
        "meta_mean_motion_ddot": 0.00035047709,
        "tle_line1": "1 66876U 25281AE  25347.07741571  .00900389  35048-3  25439-2 0  9991",
        "tle_line2": "2 66876  43.0009 120.1106 0002640 295.4716  64.5886 15.92649649  2844"
      },
      "geometry": {
        "type": "Point",
        "coordinates": [
          20.532710815656102,
          -42.96462816731458
        ]
      }
    },
    {
      "type": "Feature",
      "properties": {
        "norad_id": 66877,
        "name": "ZQ-3 R/B",
        "group": "last-30-days",
        "lat": -22.428148700206922,
        "lon": 36.044204399734966,
        "alt_km": 838.2153794173573,
        "timestamp": "2025-12-14T07:33:18.189050+00:00",
        "meta_object_name": "ZQ-3 R/B",
        "meta_object_id": "2025-282A",
        "meta_epoch": "2025-12-13T11:59:41.296128",
        "meta_mean_motion": 14.60918996,
        "meta_eccentricity": 0.07731202,
        "meta_inclination": 56.9514,
        "meta_ra_of_asc_node": 54.7646,
        "meta_arg_of_pericenter": 221.2677,
        "meta_mean_anomaly": 132.7387,
        "meta_ephemeris_type": 0,
        "meta_classification_type": "U",
        "meta_norad_cat_id": 66877,
        "meta_element_set_no": 999,
        "meta_rev_at_epoch": 150,
        "meta_bstar": 0.0002349488,
        "meta_mean_motion_dot": 0.01185665,
        "meta_mean_motion_ddot": 7.503434e-06,
        "tle_line1": "1 66877U 25282A   25347.49978352  .01185665  75034-5  23495-3 0  9993",
        "tle_line2": "2 66877  56.9514  54.7646 0773120 221.2677 132.7387 14.60918996  1505"
      },
      "geometry": {
        "type": "Point",
        "coordinates": [
          36.044204399734966,
          -22.428148700206922
        ]
      }
    },
    {
      "type": "Feature",
      "properties": {
        "norad_id": 66878,
        "name": "STARLINK-35866",
        "group": "last-30-days",
        "lat": -35.27553476908007,
        "lon": -81.98913430397351,
        "alt_km": 305.5799818183841,
        "timestamp": "2025-12-14T07:33:18.189060+00:00",
        "meta_object_name": "STARLINK-35866",
        "meta_object_id": "2025-283A",
        "meta_epoch": "2025-12-13T14:00:03.000384",
        "meta_mean_motion": 15.92259392,
        "meta_eccentricity": 7.559e-05,
        "meta_inclination": 53.1556,
        "meta_ra_of_asc_node": 69.6992,
        "meta_arg_of_pericenter": 59.901,
        "meta_mean_anomaly": 293.4413,
        "meta_ephemeris_type": 0,
        "meta_classification_type": "U",
        "meta_norad_cat_id": 66878,
        "meta_element_set_no": 999,
        "meta_rev_at_epoch": 256,
        "meta_bstar": -0.0035932699,
        "meta_mean_motion_dot": -0.01235887,
        "meta_mean_motion_ddot": 0.00045060365,
        "tle_line1": "1 66878U 25283A   25347.58336806 -.01235887  45060-3 -35933-2 0  9994",
        "tle_line2": "2 66878  53.1556  69.6992 0000755  59.9010 293.4413 15.92259392  2560"
      },
      "geometry": {
        "type": "Point",
        "coordinates": [
          -81.98913430397351,
          -35.27553476908007
        ]
      }
    }
  ]
}